{"type":"FeatureCollection","features":[{"type":"Feature","properties":{},"geometry":{"type":"MultiLineString","coordinates":[[[34.0937,31.2289],[34.1001,31.245]]]}},{"type":"Feature","properties":{},"geometry":{"type":"MultiLineString","coordinates":[[[14.9538,40.4926],[15.0353,40.5449],[15.0718,40.6535],[15.1436,40.7028],[15.6364,40.7502],[15.7355,40.7878],[15.9121,40.8886],[16.0389,40.9108],[16.1034,40.8947],[16.1576,40.8503],[16.2272,40.6986],[16.442,40.6066],[16.5231,40.5908],[16.6572,40.4818],[16.7335,40.4706],[16.7748,40.4345],[16.8037,40.3773],[16.854,40.3589]]]}},{"type":"Feature","properties":{},"geometry":{"type":"MultiLineString","coordinates":[[[12.4791,41.902],[12.4663,41.9018]]]}},{"type":"Feature","properties":{},"geometry":{"type":"MultiLineString","coordinates":[[[14.9635,41.9623],[15.0418,41.9738]]]}},{"type":"Feature","properties":{},"geometry":{"type":"MultiLineString","coordinates":[[[14.9538,40.4926],[14.9308,40.4792]]]}},{"type":"Feature","properties":{},"geometry":{"type":"MultiLineString","coordinates":[[[14.3272,45.4633],[14.3181,45.4655]]]}},{"type":"Feature","properties":{},"geometry":{"type":"MultiLineString","coordinates":[[[11.6467,43.8564],[11.7622,43.9713],[11.9563,44.0575],[12.2092,44.048],[12.2814,43.9964],[12.4458,43.9773],[12.57,43.8887],[12.6788,43.8497],[12.8915,43.9279]]]}},{"type":"Feature","properties":{},"geometry":{"type":"MultiLineString","coordinates":[[[6.9817,47.9944],[6.8775,47.9613],[6.3978,47.9449],[6.3098,47.9541],[6.2185,47.9904]],[[5.0513,47.1543],[5.1495,47.0003],[5.2374,46.9477],[5.6397,46.5125],[5.9144,46.1619]]]}},{"type":"Feature","properties":{},"geometry":{"type":"MultiLineString","coordinates":[[[7.1741,43.6895],[7.0709,43.6874],[6.8118,43.6373],[6.6974,43.6384],[6.4783,43.6863],[6.3452,43.7627],[6.3112,43.8243],[6.3289,43.9066],[6.4062,44.007],[6.5729,44.1344],[6.5921,44.1829],[6.5856,44.2375],[6.4592,44.4826],[6.4307,44.5974],[6.2962,44.7992],[6.1968,44.8881],[6.0279,44.908],[6.0052,44.96],[6.0145,45.0794],[6.236,45.3656],[6.6224,45.7629],[6.727,45.8987],[6.6778,46.0693],[6.5447,46.3431]]]}},{"type":"Feature","properties":{},"geometry":{"type":"MultiLineString","coordinates":[[[23.1361,43.2968],[23.56,43.1988],[23.7987,43.1751],[24.0478,43.0895],[24.3432,43.0262],[24.4787,42.9761],[24.7236,42.9291],[25.0007,42.8064],[25.3873,42.8753],[25.5874,42.9531],[26.5883,42.926],[27.2651,42.9876],[27.4137,42.9406],[27.5752,42.5689]]]}},{"type":"Feature","properties":{},"geometry":{"type":"MultiLineString","coordinates":[[[29.0137,41.0834],[28.9349,41.0764],[28.9042,40.9903]]]}},{"type":"Feature","properties":{},"geometry":{"type":"MultiLineString","coordinates":[[[17.2695,47.9216],[17.6372,47.7411],[17.924,47.7803],[18.2559,47.7808],[18.4574,47.7649],[18.616,47.7952],[18.729,47.8549],[18.8298,47.8465],[18.9243,47.8042],[19.0565,47.8274],[19.0341,47.6398],[18.9666,47.5509],[18.9728,47.447],[18.8745,47.3951],[18.8344,47.1747],[18.9353,47.0371],[18.8658,46.9312],[18.8953,46.8168],[18.9554,46.7343],[18.9292,46.6591],[18.8064,46.6009],[18.8495,46.5628],[18.8726,46.4835],[18.812,46.2137],[18.7255,46.1437],[18.662,46.0632],[18.6668,46.0199],[18.7627,45.9345],[18.8749,45.8733],[18.9052,45.7676],[18.9129,45.6039],[18.9776,45.5553],[19.0722,45.5383],[18.9595,45.4539],[19.1061,45.3207],[19.2419,45.2655],[19.4793,45.2349],[19.7229,45.2376],[19.8776,45.2827],[20.0194,45.2],[20.2203,45.1713],[20.2729,45.0714],[20.3475,45.0208],[20.3016,44.9739],[20.3454,44.8921],[20.4551,44.8377],[20.5821,44.8674],[20.6219,44.7686],[20.7139,44.69],[20.8282,44.6605],[20.9994,44.7278],[21.0719,44.7285],[21.3138,44.8391],[21.3729,44.8324],[21.4186,44.7669],[21.495,44.784],[21.6011,44.7718],[21.6309,44.6908],[21.8993,44.6506],[21.999,44.6127],[22.071,44.5092],[22.1179,44.5035],[22.2296,44.5675],[22.3696,44.6968],[22.4386,44.7314],[22.6663,44.6251],[22.7571,44.553],[22.6723,44.5034],[22.6146,44.5626],[22.534,44.5296],[22.5216,44.4794],[22.4144,44.4842],[22.5306,44.4178],[22.5841,44.3421],[22.6903,44.2854],[22.6758,44.2269],[23.0168,44.1048],[23.0409,44.0585],[22.9293,43.9955],[22.8211,43.8976],[22.9398,43.8475],[23.1033,43.8345],[23.2848,43.8446],[23.7748,43.8029],[24.1311,43.7089],[24.3146,43.7255],[24.6293,43.7828],[24.7526,43.7123],[24.9755,43.7391],[25.5279,43.6267],[25.9009,43.8273],[25.9917,43.9256],[26.1746,44.0087],[26.3615,44.0647],[26.9574,44.1466],[27.1404,44.1497],[27.2521,44.1213],[27.4579,44.1548],[27.5866,44.2105],[27.81,44.2227],[27.9509,44.3109],[28.0868,44.4175],[28.1163,44.4998],[28.0402,44.698],[27.9075,44.7398],[27.9431,44.8737],[27.9615,45.0284],[28.0456,45.3294],[28.1662,45.3866],[28.6823,45.2648],[28.7615,45.2763],[28.8752,45.3782],[29.4001,45.4715],[29.5898,45.4433],[29.6718,45.3652],[29.7121,45.2776]]]}},{"type":"Feature","properties":{},"geometry":{"type":"MultiLineString","coordinates":[[[28.8242,40.3744],[29.1035,40.2383],[29.8438,40.0806],[30.2327,40.0265],[30.5189,40.0253],[31.0705,40.0726],[31.383,40.0311],[31.662,40.0598],[31.9343,40.121],[32.3863,40.3122],[32.6848,40.4767],[33.1802,40.8464],[33.408,40.9801],[33.7767,41.1413],[34.1154,41.2775],[34.6469,41.4097],[34.974,41.4663],[35.2411,41.4416],[35.8851,41.1803],[36.2903,41.0477],[36.7598,40.9589],[37.1129,40.8535],[37.2389,40.8481],[37.3167,40.8735],[37.4243,40.9551],[37.4765,41.0536]]]}},{"type":"Feature","properties":{},"geometry":{"type":"MultiLineString","coordinates":[[[41.3192,41.3397],[41.1479,41.0955],[40.5189,40.4687],[40.2545,40.3372],[39.9551,40.1065],[39.8121,39.9651],[39.7441,39.846],[39.4675,39.6571],[39.3085,39.621],[39.0634,39.5954],[38.8883,39.5284],[38.4143,39.4163],[38.4207,39.3432],[38.5989,39.2496],[38.7795,39.1193],[38.827,38.9969],[38.8417,38.8144],[38.6693,38.7471],[38.5214,38.7248],[38.4346,38.647],[38.4057,38.5502],[38.5815,38.457],[38.8573,38.3831],[38.958,38.4026],[39.1133,38.3148],[39.1323,38.184],[39.2626,38.1753],[39.2514,38.0725],[39.1673,37.9592],[39.0107,37.835],[38.8473,37.5716],[38.6459,37.5687],[38.2373,37.4225],[37.9489,37.3766],[37.8872,37.2561],[37.8522,37.1447],[37.9044,37.075],[37.9904,37.0291],[38.0192,36.9143],[38.1334,36.7536],[38.1945,36.5754],[38.2674,36.4633],[38.084,36.1041],[38.1565,35.9923],[38.273,35.8831],[38.4823,35.8296],[38.6151,35.8368],[38.9303,35.9038],[39.0112,35.8933],[39.2468,35.8065],[39.6707,35.7526],[39.7863,35.7113],[39.8582,35.5891],[39.9935,35.4759],[40.13,35.3298],[40.4451,35.1174],[40.506,35.0144],[40.6225,34.9066],[40.6652,34.8423]]]}},{"type":"Feature","properties":{},"geometry":{"type":"MultiLineString","coordinates":[[[36.2681,36.6571],[36.3837,36.8499],[36.8083,37.1376],[37.0015,37.2874],[37.4241,37.5561],[37.7334,37.7839],[37.8592,37.8396],[38.0857,37.9011],[38.3249,37.9386],[38.6563,37.9643],[38.8722,38.0472],[39.1631,38.2211]]]}},{"type":"Feature","properties":{},"geometry":{"type":"MultiLineString","coordinates":[[[31.7558,36.64],[32.1301,36.7687],[32.2327,36.9103],[32.5396,37.0366],[32.8055,37.1731],[33.3476,37.2353],[33.5106,37.3982],[33.6797,37.3522],[34.3582,37.3906],[34.8272,37.4844],[35.2171,37.5044],[36.0498,37.4474],[36.3548,37.3355],[36.7633,37.0943]]]}},{"type":"Feature","properties":{},"geometry":{"type":"MultiLineString","coordinates":[[[31.6895,40.077],[31.7045,39.7965],[31.6417,39.4347],[31.6779,39.3193],[31.6575,39.2352],[31.7083,39.0454],[31.7358,38.8614],[31.717,38.596],[31.7226,38.3712],[31.6605,38.2483],[31.5318,38.1948],[31.3843,38.2306],[30.9779,38.4338],[30.7763,38.4706],[30.6753,38.4425],[30.5641,38.3717],[30.4318,38.2104],[30.3548,38.0019]]]}},{"type":"Feature","properties":{},"geometry":{"type":"MultiLineString","coordinates":[[[28.6941,36.7884],[28.9623,36.9433],[29.2402,37.1924],[29.2897,37.3366],[29.7776,37.6168],[30.2087,37.9282],[30.4075,37.9996],[30.9363,38.0911],[31.2542,38.0151],[31.8321,37.6578],[31.9456,37.5705],[32.2485,37.219],[32.4065,37.0018]]]}},{"type":"Feature","properties":{},"geometry":{"type":"MultiLineString","coordinates":[[[34.9471,32.6979],[35.1225,32.7884],[35.3804,33.0268],[35.5103,33.0877],[35.5821,33.0943],[35.688,33.0611],[35.7372,32.9006],[35.6753,32.7608],[35.708,32.2154],[35.7014,31.5832],[35.6009,31.3134],[35.4909,31.291],[35.5153,31.1541],[35.492,31.0611],[35.317,31.0021],[35.0237,31.0943],[34.3022,31.3587]]]}},{"type":"Feature","properties":{},"geometry":{"type":"MultiLineString","coordinates":[[[35.7692,32.934],[36.1389,32.9905],[36.6069,33.1447],[36.8593,33.091],[37.0395,33.0313],[37.2106,32.8427],[37.0954,32.5603],[36.8864,32.2954],[36.764,32.1037],[36.3878,31.2736],[36.232,31.0369],[36.0459,30.6526],[35.8331,30.1639],[35.8167,29.6699]]]}},{"type":"Feature","properties":{},"geometry":{"type":"MultiLineString","coordinates":[[[37.1854,32.9213],[37.2759,33.1542],[37.4622,33.4214],[37.7175,33.7],[37.8773,33.8345],[38.2405,34.2624],[38.4952,34.4276],[38.8096,34.556],[39.2231,34.6486],[39.8215,34.7207],[40.313,34.7326],[40.699,34.7975],[40.8005,34.8398]]]}},{"type":"Feature","properties":{},"geometry":{"type":"MultiLineString","coordinates":[[[35.4356,27.7344],[35.9208,27.7805],[36.1426,27.8443]]]}},{"type":"Feature","properties":{},"geometry":{"type":"MultiLineString","coordinates":[[[22.8455,32.6696],[22.6698,28.9728]]]}},{"type":"Feature","properties":{},"geometry":{"type":"MultiLineString","coordinates":[[[18.1708,30.7364],[18.4277,28.7211]]]}},{"type":"Feature","properties":{},"geometry":{"type":"MultiLineString","coordinates":[[[8.5798,32.3889],[8.5984,32.8285],[8.6778,33.1721],[8.7162,34.1049],[8.5299,34.4711],[8.4017,34.814],[8.3602,35.233],[8.7663,35.9824],[9.0902,36.7315],[9.052,37.1793]]]}},{"type":"Feature","properties":{},"geometry":{"type":"MultiLineString","coordinates":[[[24.7974,43.7527],[24.6952,43.8656],[24.5969,44.0613],[24.3456,44.4047],[24.301,44.5226],[24.3275,44.6164],[24.2415,44.9354],[24.3135,45.0506],[24.348,45.1713],[24.3142,45.3296],[24.3221,45.4262],[24.5017,45.4983],[24.7771,45.5561],[25.5333,45.6806],[25.7938,45.6822],[25.8872,45.7237],[26.0848,45.7766],[26.124,45.8968],[26.1381,46.0631],[26.12,46.1925],[26.0315,46.4173],[26.0622,46.5109],[26.0728,46.7905],[25.9868,46.9024],[25.6805,47.1602],[25.3212,47.3262],[25.067,47.5036],[24.8812,47.5724],[24.2805,47.7119],[23.9292,47.717],[23.2804,47.6192],[23.0765,47.4772],[22.9731,47.3226],[23.0534,46.9358],[23.0458,46.7555],[22.944,46.601],[22.6845,46.5357],[22.4775,46.4357],[21.9781,46.1197],[21.669,45.6557],[21.5674,45.4732],[21.3611,44.9979],[21.3378,44.8067]]]}},{"type":"Feature","properties":{},"geometry":{"type":"MultiLineString","coordinates":[[[20.2804,40.2733],[20.5007,40.1353],[20.8587,39.8296],[21.2277,39.5966],[21.4096,39.1777],[21.4228,39.0063],[21.3889,38.8409],[21.2319,38.5403],[21.1756,38.3779]]]}},{"type":"Feature","properties":{},"geometry":{"type":"MultiLineString","coordinates":[[[35.9407,35.3598],[36.1624,35.2594],[36.9165,34.8308],[37.2829,34.522],[38.0349,34.0012]]]}},{"type":"Feature","properties":{},"geometry":{"type":"MultiLineString","coordinates":[[[39.0872,38.3563],[39.5358,38.3495],[39.904,38.2709],[40.2824,38.138],[40.6016,37.9754],[41.154,37.7911],[41.4069,37.7305],[41.6414,37.7086],[41.7825,37.7377],[41.8508,37.6791],[41.8702,37.5733],[41.848,37.4669],[41.9247,37.3887],[42.074,37.3975],[42.2332,37.3201],[42.3345,37.2153],[42.4118,37.0375],[42.4786,36.9787],[42.5382,36.8404],[42.6047,36.7815],[42.8109,36.6838],[42.7058,36.5445],[42.8291,36.4793],[43.0337,36.4143],[43.1237,36.3288],[43.0756,36.1507],[42.955,35.9527],[42.8668,35.8404]]]}},{"type":"Feature","properties":{},"geometry":{"type":"MultiLineString","coordinates":[[[40.4614,35.1114],[40.5528,35.2062],[40.6104,35.346],[40.6266,35.5174],[40.789,35.6669],[40.8565,35.7873],[40.8996,36.1112],[40.9575,36.2842],[41.1076,36.4068],[41.1588,36.5665],[41.0283,36.7615],[41.0603,36.9937],[40.8822,37.1081],[40.0741,37.3673],[38.9721,37.7655]]]}},{"type":"Feature","properties":{},"geometry":{"type":"MultiLineString","coordinates":[[[11.6467,43.8564],[11.7622,43.9713],[11.9126,44.0474],[11.9679,44.0581],[12.1997,44.05],[12.2884,43.9943],[12.4275,43.9838],[12.57,43.8887],[12.6684,43.8515],[12.707,43.8531],[12.7835,43.893]]]}},{"type":"Feature","properties":{},"geometry":{"type":"MultiLineString","coordinates":[[[12.4791,41.902],[12.6352,41.8953],[12.8236,41.8563],[13.3116,41.8507],[13.5368,41.8144],[13.7209,41.7521],[13.9077,41.6632],[14.0468,41.5685],[14.1537,41.463],[14.2854,41.4354],[14.4534,41.3751],[14.5511,41.3603]]]}},{"type":"Feature","properties":{},"geometry":{"type":"MultiLineString","coordinates":[[[12.1674,43.5016],[12.0601,43.5348],[12.005,43.6173],[11.9636,43.6459],[11.7514,43.6596],[11.6763,43.7002],[11.6465,43.7502],[11.6832,43.8265],[11.624,43.8673],[11.3665,43.9149],[11.1592,43.9794],[10.9211,44.0199],[10.7836,44.1124],[10.3747,44.2977],[10.0985,44.3831],[9.8135,44.4974],[9.7039,44.5029],[9.6436,44.4665],[9.6404,44.384],[9.711,44.3255],[9.7282,44.2202],[9.802,44.143],[9.8092,44.1047]]]}},{"type":"Feature","properties":{},"geometry":{"type":"MultiLineString","coordinates":[[[14.9635,41.9623],[14.8928,41.9415],[14.8681,41.8983],[14.9456,41.7516],[14.9312,41.6719],[14.695,41.4507],[14.5045,41.3092],[14.4822,41.2735],[14.4634,41.1598],[14.5055,41.0821],[14.7539,40.9502],[14.9667,40.7827],[15.0661,40.6845]]]}},{"type":"Feature","properties":{},"geometry":{"type":"MultiLineString","coordinates":[[[14.3272,45.4633],[14.6988,45.3202],[15.2732,45.1277],[16.1714,44.8983],[17.1529,44.7165],[17.979,44.6281],[18.5458,44.5478],[19.1647,44.5189],[19.6034,44.5333],[19.9207,44.5937],[20.0319,44.6417],[20.11,44.6529],[20.1596,44.6956],[20.2858,44.7052],[20.4536,44.8237]]]}},{"type":"Feature","properties":{},"geometry":{"type":"MultiLineString","coordinates":[[[22.1123,42.0754],[22.387,41.9194],[22.9688,41.7332]]]}},{"type":"Feature","properties":{},"geometry":{"type":"MultiLineString","coordinates":[[[19.4627,40.3276],[19.8468,40.2728],[20.0562,40.2616],[20.4332,40.3049],[20.5807,40.3443],[20.6642,40.3437],[20.7544,40.3112],[20.9016,40.2276],[21.2388,39.9542],[21.3981,39.8813],[21.5968,39.8491],[21.7611,39.8419],[22.132,39.8998],[22.2716,39.9058],[22.4227,39.8851],[22.7489,39.8053]]]}},{"type":"Feature","properties":{},"geometry":{"type":"MultiLineString","coordinates":[[[34.0937,31.2289],[33.9191,30.9494],[33.7245,30.7232],[32.655,29.8225]]]}},{"type":"Feature","properties":{},"geometry":{"type":"MultiLineString","coordinates":[[[6.0812,36.8743],[6.2828,36.6338],[6.5456,36.3707],[6.5224,36.2455],[6.1922,36.1325],[5.8382,35.9427],[5.6115,35.7083],[5.4547,35.378],[5.3653,34.9772],[5.4036,34.485],[5.3492,34.0384],[5.2859,33.715],[5.3108,33.397]]]}},{"type":"Feature","properties":{},"geometry":{"type":"MultiLineString","coordinates":[[[5.1108,45.7752],[5.2678,45.8828],[5.4183,45.8061],[5.5966,45.6803],[5.7627,45.6873],[5.7697,45.888],[5.8526,46.0417],[5.9614,46.1797],[6.5496,46.368],[6.7423,46.3743],[7.1017,46.4183],[7.3607,46.5421],[7.793,46.619],[8.3011,46.6452],[8.5668,46.6826],[8.8312,46.7861],[8.9743,46.9212],[9.0934,47.0727],[9.2141,47.1739],[9.0635,47.3565],[9.061,47.4902],[9.3013,47.9268]]]}},{"type":"Feature","properties":{},"geometry":{"type":"MultiLineString","coordinates":[[[12.2063,45.1235],[11.4694,45.0274],[11.2574,45.0303],[11.1429,45.0863],[10.8142,45.0485],[10.6985,45.0493],[10.6974,44.9673],[10.6201,44.9405],[10.4662,44.955],[10.2548,45.0241],[10.2163,45.0242],[10.0429,45.1064],[9.9463,45.1338],[9.85,45.0516],[9.5987,45.1193],[9.2312,45.1582],[8.7322,45.0165],[8.5947,45.1104],[8.439,45.1491],[8.1086,45.1982],[7.9351,45.1812],[7.763,45.1365],[7.6355,44.9695],[7.5823,44.8725],[7.3014,44.7286],[7.2057,44.726],[7.0381,44.6392],[6.9673,44.5414],[6.8545,44.5106],[6.8447,44.36],[6.63,44.148],[6.5552,44.1318]]]}},{"type":"Feature","properties":{},"geometry":{"type":"MultiLineString","coordinates":[[[6.227,44.9332],[6.3853,45.0422],[6.5681,45.1075],[6.7949,45.1444],[7.7513,45.1849]]]}},{"type":"Feature","properties":{},"geometry":{"type":"MultiLineString","coordinates":[[[7.5608,44.8121],[7.7945,44.6702],[7.7983,44.582],[7.8679,44.3921],[7.7903,44.2874],[7.6505,44.2107],[7.5539,44.0907],[7.4977,43.9864],[7.6082,43.798]]]}},{"type":"Feature","properties":{},"geometry":{"type":"MultiLineString","coordinates":[[[7.4065,45.1762],[7.3481,45.4303],[7.2766,45.4923],[7.2671,45.6679],[7.3076,45.7649],[7.5042,45.9458],[7.8429,46.0654],[8.113,46.2146],[8.3579,46.4748],[8.445,46.6522]]]}},{"type":"Feature","properties":{},"geometry":{"type":"MultiLineString","coordinates":[[[9.9795,45.1454],[10.07,45.3689],[10.1388,45.6723],[10.2535,45.8159],[10.324,46.1194],[10.4636,46.2947],[10.5618,46.8223],[10.6104,46.9821]]]}},{"type":"Feature","properties":{},"geometry":{"type":"MultiLineString","coordinates":[[[8.4273,46.4758],[8.7039,46.5277],[8.9817,46.5468],[9.6297,46.7271],[10.0254,46.7758],[10.3056,46.8714],[10.6342,47.014],[10.5895,47.1904],[11.0393,47.3471],[11.2977,47.3122],[11.5582,47.3568],[12.1838,47.6343],[12.1888,47.7464],[12.1246,47.9081]]]}},{"type":"Feature","properties":{},"geometry":{"type":"MultiLineString","coordinates":[[[8.9602,45.1191],[9.1577,44.9525],[9.3735,44.9387],[9.4608,44.8321],[9.4623,44.6943],[9.3988,44.6175],[9.2709,44.5707],[9.2932,44.5097],[9.4642,44.5108],[9.5718,44.4195],[9.7439,44.1449]]]}},{"type":"Feature","properties":{},"geometry":{"type":"MultiLineString","coordinates":[[[12.2217,43.4993],[12.2368,43.4],[12.3692,43.3262],[12.4033,43.2265],[12.4573,43.1404],[12.3918,42.9726],[12.386,42.8457],[12.3063,42.777],[12.2477,42.7502],[12.2429,42.6374],[12.2584,42.5524],[12.4438,42.4351],[12.4589,42.3502],[12.5511,42.2914],[12.587,42.2482],[12.6193,42.1346],[12.4987,41.9828],[12.4947,41.8985],[12.4351,41.8296],[12.3417,41.846],[12.2823,41.7771]]]}},{"type":"Feature","properties":{},"geometry":{"type":"MultiLineString","coordinates":[[[12.407,42.4643],[12.6027,42.572],[12.7574,42.6101],[12.8404,42.7347],[13.0205,42.8705],[13.0988,42.8962],[13.4528,42.729],[13.7383,42.7044],[13.9314,42.725]]]}},{"type":"Feature","properties":{},"geometry":{"type":"MultiLineString","coordinates":[[[13.0996,42.9103],[13.1464,43.0501],[13.1667,43.3886],[13.1627,43.6434],[13.2626,43.6825]]]}},{"type":"Feature","properties":{},"geometry":{"type":"MultiLineString","coordinates":[[[10.5972,46.7815],[11.2494,46.7758],[11.8076,46.7463],[12.2071,46.6532],[12.6715,46.6424],[13.6568,46.5484],[13.9346,46.5383],[14.9682,46.3444],[15.2423,46.3095],[15.7331,46.2835],[16.1577,46.4731],[16.3187,46.7632],[16.1811,47.1571],[16.1061,47.3115],[16.0336,47.7445],[16.0973,47.9982]]]}},{"type":"Feature","properties":{},"geometry":{"type":"MultiLineString","coordinates":[[[15.0768,46.3235],[14.8904,46.211],[14.7956,46.1345],[14.6916,45.9572],[14.3424,45.6086],[14.1789,45.373],[14.1891,45.1504]]]}},{"type":"Feature","properties":{},"geometry":{"type":"MultiLineString","coordinates":[[[17.9395,47.7502],[18.1806,47.5689],[18.3312,47.3942],[18.3646,47.0657],[18.1572,46.7158],[18.0496,46.4191],[18.0409,46.251],[17.9834,46.0263],[17.7848,44.8234],[17.6981,44.6606]]]}},{"type":"Feature","properties":{},"geometry":{"type":"MultiLineString","coordinates":[[[20.3075,44.6986],[20.2643,44.4846],[20.2838,44.3482],[20.1824,43.8384],[20.1567,43.5896],[20.189,43.1674],[19.9698,42.0201],[19.5886,41.6424]]]}},{"type":"Feature","properties":{},"geometry":{"type":"MultiLineString","coordinates":[[[19.9491,42.0044],[20.3453,41.9973],[20.6099,41.9159],[20.842,41.9073],[21.2194,41.8112],[21.667,41.8274],[21.8719,41.9071],[22.1653,42.0628],[22.2787,41.9432],[22.7819,41.7893],[23.0685,41.7152],[23.2765,41.7038],[23.5931,41.6589],[24.274,41.3124],[24.3899,41.1365],[24.5718,40.9501]]]}},{"type":"Feature","properties":{},"geometry":{"type":"MultiLineString","coordinates":[[[22.0781,42.0743],[22.356,42.3145],[22.5704,42.5904],[22.9871,42.9193],[23.4516,43.8313]]]}}]}